{"fetched_at":"2026-03-29T02:12:04Z","count":15717,"tles":[{"name":"STARLINK-35661","line1":"1 66387U 25257H   26087.41166580  .00025840  00000+0  88162-3 0  9991","line2":"2 66387  53.1588 129.7993 0001319  88.5468 271.5684 15.30196749 22603","category":"Starlink"}]}