{
  "norad_id": 66387,
  "name": "STARLINK-35661",
  "history": [
    {
      "epoch": "2026-03-28T09:52:47.925120Z",
      "apogee_km": 476.12880328842857,
      "perigee_km": 474.32074938459664,
      "latitude_deg": 1.559996177527136e-05,
      "longitude_deg": 155.7671315594269,
      "height_km": 476.09972585011565,
      "semi_major_axis_km": 6853.361776336513,
      "eccentricity": 0.00013191,
      "inclination_deg": 53.1588,
      "raan_deg": 129.7993,
      "arg_perigee_deg": 88.5468,
      "mean_anomaly_deg": 271.5684,
      "mean_motion_rev_day": 15.30196749
    }
  ]
}